ASTRA 3A                
1 27400U 02015B   17345.09627099 -.00000289  00000-0  00000-0 0  9993
2 27400   4.1507  67.9515 0002566 212.7393 146.9816  1.00274058 57544
